{"type": "FeatureCollection", "features": [ {"type": "Feature", "properties": {"norad_id": 66377, "name": "CZ-11 DEB", "group": "last-30-days", "lat": 24.3041600055115, "lon": 11.455958234527124, "alt_km": 438.2187945395108, "timestamp": "2025-12-05T16:54:13.484673+00:00", "meta": {"OBJECT_NAME": "CZ-11 DEB", "OBJECT_ID": "2025-255B", "EPOCH": "2025-12-05T03:49:57.444960", "MEAN_MOTION": 15.43766179, "ECCENTRICITY": 0.00138166, "INCLINATION": 52.9949, "RA_OF_ASC_NODE": 213.9635, "ARG_OF_PERICENTER": 16.3255, "MEAN_ANOMALY": 343.8192, "EPHEMERIS_TYPE": 0, "CLASSIFICATION_TYPE": "U", "NORAD_CAT_ID": 66377, "ELEMENT_SET_NO": 999, "REV_AT_EPOCH": 404, "BSTAR": 0.0013050272, "MEAN_MOTION_DOT": 0.00060195, "MEAN_MOTION_DDOT": 0}, "tle": {"line1": "1 66377U 25255B   25339.15969265  .00060195  00000+0  13050-2 0  9994", "line2": "2 66377  52.9949 213.9635 0013816  16.3255 343.8192 15.43766179  4046"}}, "geometry": {"type": "Point", "coordinates": [11.455958234527124, 24.3041600055115]}}, {"type": "Feature", "properties": {"norad_id": 66378, "name": "SHIYAN-32 02", "group": "last-30-days", "lat": -1.739549579523478, "lon": 32.617182883320595, "alt_km": 442.1573561372188, "timestamp": "2025-12-05T16:54:13.484683+00:00", "meta": {"OBJECT_NAME": "SHIYAN-32 02", "OBJECT_ID": "2025-255C", "EPOCH": "2025-12-05T05:14:50.286048", "MEAN_MOTION": 15.44376776, "ECCENTRICITY": 0.00121626, "INCLINATION": 52.9936, "RA_OF_ASC_NODE": 213.6194, "ARG_OF_PERICENTER": 13.4657, "MEAN_ANOMALY": 346.667, "EPHEMERIS_TYPE": 0, "CLASSIFICATION_TYPE": "U", "NORAD_CAT_ID": 66378, "ELEMENT_SET_NO": 999, "REV_AT_EPOCH": 405, "BSTAR": 0.0016796731, "MEAN_MOTION_DOT": 0.00079363, "MEAN_MOTION_DDOT": 0}, "tle": {"line1": "1 66378U 25255C   25339.21863757  .00079363  00000+0  16797-2 0  9999", "line2": "2 66378  52.9936 213.6194 0012162  13.4657 346.6670 15.44376776  4051"}}, "geometry": {"type": "Point", "coordinates": [32.617182883320595, -1.739549579523478]}}, {"type": "Feature", "properties": {"norad_id": 66379, "name": "SHIYAN-32 03", "group": "last-30-days", "lat": 49.986858250123035, "lon": -32.49272865660217, "alt_km": 430.26244627671895, "timestamp": "2025-12-05T16:54:13.484693+00:00", "meta": {"OBJECT_NAME": "SHIYAN-32 03", "OBJECT_ID": "2025-255D", "EPOCH": "2025-12-05T07:07:02.067744", "MEAN_MOTION": 15.42749389, "ECCENTRICITY": 0.00155383, "INCLINATION": 52.996, "RA_OF_ASC_NODE": 213.3945, "ARG_OF_PERICENTER": 20.0996, "MEAN_ANOMALY": 340.0617, "EPHEMERIS_TYPE": 0, "CLASSIFICATION_TYPE": "U", "NORAD_CAT_ID": 66379, "ELEMENT_SET_NO": 999, "REV_AT_EPOCH": 408, "BSTAR": 0.00058546258, "MEAN_MOTION_DOT": 0.00025763, "MEAN_MOTION_DDOT": 0}, "tle": {"line1": "1 66379U 25255D   25339.29655171  .00025763  00000+0  58546-3 0  9991", "line2": "2 66379  52.9960 213.3945 0015538  20.0996 340.0617 15.42749389  4084"}}, "geometry": {"type": "Point", "coordinates": [-32.49272865660217, 49.986858250123035]}}, {"type": "Feature", "properties": {"norad_id": 66380, "name": "STARLINK-35139", "group": "last-30-days", "lat": 19.702128704925954, "lon": -46.62096866219237, "alt_km": 444.7553094089553, "timestamp": "2025-12-05T16:54:13.484702+00:00", "meta": {"OBJECT_NAME": "STARLINK-35139", "OBJECT_ID": "2025-257A", "EPOCH": "2025-12-05T06:00:02.000160", "MEAN_MOTION": 15.39580895, "ECCENTRICITY": 0.00018883, "INCLINATION": 53.1596, "RA_OF_ASC_NODE": 299.9469, "ARG_OF_PERICENTER": 96.7559, "MEAN_ANOMALY": 288.8357, "EPHEMERIS_TYPE": 0, "CLASSIFICATION_TYPE": "U", "NORAD_CAT_ID": 66380, "ELEMENT_SET_NO": 999, "REV_AT_EPOCH": 523, "BSTAR": 0.0021972198, "MEAN_MOTION_DOT": 0.000884, "MEAN_MOTION_DDOT": 0}, "tle": {"line1": "1 66380U 25257A   25339.25002315  .00088400  00000+0  21972-2 0  9996", "line2": "2 66380  53.1596 299.9469 0001888  96.7559 288.8357 15.39580895  5232"}}, "geometry": {"type": "Point", "coordinates": [-46.62096866219237, 19.702128704925954]}}, {"type": "Feature", "properties": {"norad_id": 66381, "name": "STARLINK-35158", "group": "last-30-days", "lat": 21.137902463485045, "lon": -45.34868982681108, "alt_km": 444.66481304222907, "timestamp": "2025-12-05T16:54:13.484711+00:00", "meta": {"OBJECT_NAME": "STARLINK-35158", "OBJECT_ID": "2025-257B", "EPOCH": "2025-12-05T06:00:02.000160", "MEAN_MOTION": 15.39560488, "ECCENTRICITY": 7.29e-05, "INCLINATION": 53.1597, "RA_OF_ASC_NODE": 299.9427, "ARG_OF_PERICENTER": 88.9223, "MEAN_ANOMALY": 298.5365, "EPHEMERIS_TYPE": 0, "CLASSIFICATION_TYPE": "U", "NORAD_CAT_ID": 66381, "ELEMENT_SET_NO": 999, "REV_AT_EPOCH": 529, "BSTAR": 0.0028763487, "MEAN_MOTION_DOT": 0.00116193, "MEAN_MOTION_DDOT": 0}, "tle": {"line1": "1 66381U 25257B   25339.25002315  .00116193  00000+0  28763-2 0  9993", "line2": "2 66381  53.1597 299.9427 0000729  88.9223 298.5365 15.39560488  5291"}}, "geometry": {"type": "Point", "coordinates": [-45.34868982681108, 21.137902463485045]}}, {"type": "Feature", "properties": {"norad_id": 66382, "name": "STARLINK-35639", "group": "last-30-days", "lat": 38.28315938611304, "lon": -25.967875425599452, "alt_km": 441.4084212106809, "timestamp": "2025-12-05T16:54:13.484720+00:00", "meta": {"OBJECT_NAME": "STARLINK-35639", "OBJECT_ID": "2025-257C", "EPOCH": "2025-12-05T06:00:02.000160", "MEAN_MOTION": 15.3957936, "ECCENTRICITY": 0.00012096, "INCLINATION": 53.1602, "RA_OF_ASC_NODE": 299.8936, "ARG_OF_PERICENTER": 70.603, "MEAN_ANOMALY": 340.7784, "EPHEMERIS_TYPE": 0, "CLASSIFICATION_TYPE": "U", "NORAD_CAT_ID": 66382, "ELEMENT_SET_NO": 999, "REV_AT_EPOCH": 529, "BSTAR": 0.0019431638, "MEAN_MOTION_DOT": 0.0007802, "MEAN_MOTION_DDOT": 0}, "tle": {"line1": "1 66382U 25257C   25339.25002315  .00078020  00000+0  19432-2 0  9993", "line2": "2 66382  53.1602 299.8936 0001209  70.6030 340.7784 15.39579360  5295"}}, "geometry": {"type": "Point", "coordinates": [-25.967875425599452, 38.28315938611304]}}, {"type": "Feature", "properties": {"norad_id": 66383, "name": "STARLINK-35690", "group": "last-30-days", "lat": 51.09025656768474, "lon": 5.9474932976027155, "alt_km": 439.2636347619082, "timestamp": "2025-12-05T16:54:13.484731+00:00", "meta": {"OBJECT_NAME": "STARLINK-35690", "OBJECT_ID": "2025-257D", "EPOCH": "2025-12-05T06:00:02.000160", "MEAN_MOTION": 15.39563176, "ECCENTRICITY": 0.00014907, "INCLINATION": 53.1607, "RA_OF_ASC_NODE": 299.8422, "ARG_OF_PERICENTER": 66.8172, "MEAN_ANOMALY": 10.3245, "EPHEMERIS_TYPE": 0, "CLASSIFICATION_TYPE": "U", "NORAD_CAT_ID": 66383, "ELEMENT_SET_NO": 999, "REV_AT_EPOCH": 529, "BSTAR": 0.0024774355, "MEAN_MOTION_DOT": 0.00099815, "MEAN_MOTION_DDOT": 0}, "tle": {"line1": "1 66383U 25257D   25339.25002315  .00099815  00000+0  24774-2 0  9994", "line2": "2 66383  53.1607 299.8422 0001490  66.8172  10.3245 15.39563176  5297"}}, "geometry": {"type": "Point", "coordinates": [5.9474932976027155, 51.09025656768474]}}, {"type": "Feature", "properties": {"norad_id": 66384, "name": "STARLINK-35662", "group": "last-30-days", "lat": 51.59850369340489, "lon": 8.751680346313774, "alt_km": 439.0964927042605, "timestamp": "2025-12-05T16:54:13.484739+00:00", "meta": {"OBJECT_NAME": "STARLINK-35662", "OBJECT_ID": "2025-257E", "EPOCH": "2025-12-05T06:00:02.000160", "MEAN_MOTION": 15.39573256, "ECCENTRICITY": 0.00016385, "INCLINATION": 53.161, "RA_OF_ASC_NODE": 299.8395, "ARG_OF_PERICENTER": 91.6158, "MEAN_ANOMALY": 347.3413, "EPHEMERIS_TYPE": 0, "CLASSIFICATION_TYPE": "U", "NORAD_CAT_ID": 66384, "ELEMENT_SET_NO": 999, "REV_AT_EPOCH": 529, "BSTAR": 0.002404948, "MEAN_MOTION_DOT": 0.00096878, "MEAN_MOTION_DDOT": 0}, "tle": {"line1": "1 66384U 25257E   25339.25002315  .00096878  00000+0  24049-2 0  9996", "line2": "2 66384  53.1610 299.8395 0001638  91.6158 347.3413 15.39573256  5295"}}, "geometry": {"type": "Point", "coordinates": [8.751680346313774, 51.59850369340489]}}, {"type": "Feature", "properties": {"norad_id": 66385, "name": "STARLINK-35659", "group": "last-30-days", "lat": 39.44479488727054, "lon": -24.167770724748465, "alt_km": 441.4049986619266, "timestamp": "2025-12-05T16:54:13.484748+00:00", "meta": {"OBJECT_NAME": "STARLINK-35659", "OBJECT_ID": "2025-257F", "EPOCH": "2025-12-05T06:00:02.000160", "MEAN_MOTION": 15.39575896, "ECCENTRICITY": 0.00010991, "INCLINATION": 53.1604, "RA_OF_ASC_NODE": 299.8908, "ARG_OF_PERICENTER": 86.6579, "MEAN_ANOMALY": 326.5538, "EPHEMERIS_TYPE": 0, "CLASSIFICATION_TYPE": "U", "NORAD_CAT_ID": 66385, "ELEMENT_SET_NO": 999, "REV_AT_EPOCH": 529, "BSTAR": 0.0018524877, "MEAN_MOTION_DOT": 0.00074315, "MEAN_MOTION_DDOT": 0}, "tle": {"line1": "1 66385U 25257F   25339.25002315  .00074315  00000+0  18525-2 0  9991", "line2": "2 66385  53.1604 299.8908 0001099  86.6579 326.5538 15.39575896  5290"}}, "geometry": {"type": "Point", "coordinates": [-24.167770724748465, 39.44479488727054]}}, {"type": "Feature", "properties": {"norad_id": 66386, "name": "STARLINK-35651", "group": "last-30-days", "lat": 51.40553530795767, "lon": 47.71364499550422, "alt_km": 438.93718388582056, "timestamp": "2025-12-05T16:54:13.484758+00:00", "meta": {"OBJECT_NAME": "STARLINK-35651", "OBJECT_ID": "2025-257G", "EPOCH": "2025-12-05T06:00:02.000160", "MEAN_MOTION": 15.39565316, "ECCENTRICITY": 0.00018531, "INCLINATION": 53.1608, "RA_OF_ASC_NODE": 299.7912, "ARG_OF_PERICENTER": 92.8149, "MEAN_ANOMALY": 10.0911, "EPHEMERIS_TYPE": 0, "CLASSIFICATION_TYPE": "U", "NORAD_CAT_ID": 66386, "ELEMENT_SET_NO": 999, "REV_AT_EPOCH": 529, "BSTAR": 0.0027681056, "MEAN_MOTION_DOT": 0.00111758, "MEAN_MOTION_DDOT": 0}, "tle": {"line1": "1 66386U 25257G   25339.25002315  .00111758  00000+0  27681-2 0  9998", "line2": "2 66386  53.1608 299.7912 0001853  92.8149  10.0911 15.39565316  5295"}}, "geometry": {"type": "Point", "coordinates": [47.71364499550422, 51.40553530795767]}}]}